OUFTI-1                 
1 41458U 16025C   21118.63405602  .00003700  00000-0  18223-3 0  9994
2 41458  98.1365 252.7753 0158087 227.3128 131.4694 15.08366407274967
E-ST@R-II               
1 41459U 16025D   21118.84788052  .00004029  00000-0  19979-3 0  9995
2 41459  98.1332 252.1197 0160304 229.4058 129.3142 15.07808024274945
AAUSAT 4                
1 41460U 16025E   21118.64564834  .00007099  00000-0  33342-3 0  9995
2 41460  98.1337 255.5356 0147448 214.5969 144.5635 15.10770295275192
AIST-2D (RS-48)         
1 41465U 16026B   21118.82158753  .00003407  00000-0  99080-4 0  9991
2 41465  97.1142   4.6199 0010507 183.8055 240.7059 15.36058683279817
SAMSAT-218D             
1 41466U 16026C   21118.92405185  .00025510  00000-0  39628-3 0  9997
2 41466  97.1608  27.3268 0007046 110.1403 316.4730 15.53913093281148
NUSAT-1 (FRESCO)        
1 41557U 16033B   21118.87070012  .00003295  00000-0  11842-3 0  9991
2 41557  97.3917 213.0990 0014449  55.2023  53.6604 15.29267958273957
NUSAT-2 (BATATA)        
1 41558U 16033C   21118.87379181  .00003244  00000-0  10943-3 0  9996
2 41558  97.4013 216.6931 0013258  50.6549  58.0582 15.31361079274136
CARTOSAT-2C             
1 41599U 16040A   21118.93309234  .00000893  00000-0  45503-4 0  9996
2 41599  97.4039 179.2632 0013609 183.7124 297.0924 15.19252989268995
SATHYABAMASAT           
1 41600U 16040B   21118.83625724  .00003447  00000-0  13665-3 0  9994
2 41600  97.2764 177.3402 0014111 147.6062 212.6046 15.25958615269584
LAPAN-A3                
1 41603U 16040E   21118.89217694  .00000264  00000-0  15292-4 0  9999
2 41603  97.2619 167.6910 0013447 169.2977 296.6268 15.20009000269058
BIROS                   
1 41604U 16040F   21118.45124807  .00001036  00000-0  47558-4 0  9993
2 41604  97.2679 172.5469 0012982 150.1489 210.0491 15.22503876269295
SWAYAM                  
1 41607U 16040J   21118.12881366  .00003452  00000-0  13826-3 0  9994
2 41607  97.2720 175.5017 0013640 149.6947 210.5083 15.25618557269378
BEESAT-4                
1 41619U 16040W   21118.86758023  .00002773  00000-0  11272-3 0  9999
2 41619  97.2737 176.3416 0011929 140.1628 220.0488 15.25304710257455
3CAT-2                  
1 41732U 16051B   21118.59177291  .00002857  00000-0  10480-3 0  9992
2 41732  97.3788  39.3033 0012009 331.6210 151.4172 15.28730254261883
PRATHAM                 
1 41783U 16059A   21118.13185855  .00000117  00000-0  31619-4 0  9996
2 41783  97.9696 169.9482 0034486  46.5927 313.8138 14.63131507244893
ALSAT 1N                
1 41789U 16059G   21118.83270900  .00000136  00000-0  34494-4 0  9990
2 41789  97.9738 174.1968 0029031  30.6531 329.6347 14.64411948245189
LISHUI 1-01             
1 41845U 16066E   21118.81353289  .00004997  00000-0  65087-3 0  9991
2 41845  98.7276 219.6335 0269445 272.8678  84.1731 14.58884955236161
CARTOSAT-2D             
1 41948U 17008A   21118.88045528  .00000994  00000-0  50371-4 0  9997
2 41948  97.4465 179.9062 0006859 346.4885  13.6164 15.19249487232854
NAYIF-1 (EO-88)         
1 42017U 17008BX  21118.85837954  .00003123  00000-0  11720-3 0  9995
2 42017  97.3186 187.3452 0004259 288.7860  71.2917 15.27943222233685
ZHUHAI-1 02 (CAS-4B)    
1 42759U 17034B   21118.81938797  .00000472  00000-0  41770-4 0  9993
2 42759  43.0162  93.9421 0009426 222.0448 211.5208 15.10172406213648
ZHUHAI-1 01 (CAS-4A)    
1 42761U 17034D   21118.81298781  .00000508  00000-0  43805-4 0  9999
2 42761  43.0171  93.0694 0010299 222.0698 210.6954 15.10254234213649
UCLSAT                  
1 42765U 17036A   21118.84423951  .00002566  00000-0  10651-3 0  9995
2 42765  97.2543 169.9636 0010708   3.1207 357.0096 15.24677326214027
NIUSAT                  
1 42766U 17036B   21118.89635738  .00001890  00000-0  84066-4 0  9990
2 42766  97.2549 166.5813 0014754 357.5934   2.5230 15.22591917213673
CARTOSAT-2E             
1 42767U 17036C   21118.91265140  .00000894  00000-0  45684-4 0  9996
2 42767  97.5094 178.2326 0009281  31.3623  82.1625 15.19226892213420
LITUANICASAT-2          
1 42768U 17036D   21118.90518697  .00004110  00000-0  16232-3 0  9995
2 42768  97.2616 170.6727 0013113 349.0464  11.0487 15.25986033213918
AALTO-1                 
1 42775U 17036L   21118.86790387  .00001682  00000-0  75254-4 0  9997
2 42775  97.2525 166.8265 0013319 357.3273   2.7891 15.22566943213655
URSA MAIOR              
1 42776U 17036M   21118.87872537  .00001819  00000-0  80538-4 0  9990
2 42776  97.2538 167.2747 0013066 356.9631   3.1524 15.22818245213677
COMPASS 2               
1 42777U 17036N   21118.13835687  .00003809  00000-0  15318-3 0  9999
2 42777  97.2600 170.1422 0011202 355.0651   5.0475 15.25444126213743
MAX VALIER SAT          
1 42778U 17036P   21118.78214044  .00001950  00000-0  84556-4 0  9995
2 42778  97.2596 169.0115 0011601   0.9799 359.1459 15.23468510213720
PEGASUS                 
1 42784U 17036V   21118.81048559  .00002357  00000-0  99253-4 0  9994
2 42784  97.2550 169.4807 0011347   4.4069 355.7266 15.24264396213797
NUDTSAT                 
1 42787U 17036Y   21118.94393550  .00003958  00000-0  15596-3 0  9990
2 42787  97.2596 171.8530 0011122 358.0963   2.0232 15.26107825213781
SUCHAI                  
1 42788U 17036Z   21118.83470381  .00002707  00000-0  11108-3 0  9993
2 42788  97.2560 170.4290 0010735   1.9993 358.1286 15.25019328213926
SKCUBE                  
1 42789U 17036AA  21118.85552960  .00002625  00000-0  10860-3 0  9993
2 42789  97.2554 170.1849 0010687   2.5872 357.5419 15.24771394213834
VZLUSAT-1               
1 42790U 17036AB  21118.80612963  .00003431  00000-0  13571-3 0  9998
2 42790  97.2582 171.7106 0009837 359.1298   0.9922 15.26085512213917
ROBUSTA-1B              
1 42792U 17036AD  21118.83194914  .00002623  00000-0  10778-3 0  9992
2 42792  97.2557 170.5223 0010277   3.1187 357.0114 15.25002742213867
D-SAT                   
1 42794U 17036AF  21118.84947423  .00000686  00000-0  63959-4 0  9993
2 42794  97.4653 141.3664 0126498  32.4076 328.4832 14.91532602209665
NORSAT 2                
1 42828U 17042D   21118.86736461  .00000711  00000-0  75585-4 0  9995
2 42828  97.4844 352.3477 0013245 316.2282  43.7886 14.91812216206348
TECHNOSAT               
1 42829U 17042E   21118.86858700  .00000338  00000-0  39195-4 0  9999
2 42829  97.4761 351.0217 0013121 317.8362  42.1847 14.91263668206299
2017-042F               
1 42830U 17042F   21118.87394729  .00001305  00000-0  13118-3 0  9999
2 42830  97.4877 353.4620 0012912 310.6672  49.3425 14.92792820206407
FLYING LAPTOP           
1 42831U 17042G   21118.77528200 -.00000066  00000-0 -13392-5 0  9993
2 42831  97.4786 351.1448 0013069 318.8300  41.1947 14.91277893206284
CORVUS BC2              
1 42846U 17042X   21118.88042261  .00000286  00000-0  33132-4 0  9994
2 42846  97.4798 353.4195 0008369 311.2249  48.8249 14.92275582206444
CORVUS BC1              
1 42847U 17042Y   21118.85459618  .00000480  00000-0  52057-4 0  9993
2 42847  97.4801 353.6237 0007984 310.5569  49.4955 14.92377438206442
SIMPL                   
1 42983U 98067NF  21118.63165324  .00008617  00000-0  87825-4 0  9995
2 42983  51.6347 152.3691 0002889 144.1262 215.9928 15.66026274199596
CZ-4C R/B               
1 43012U 17072C   21118.53588721  .00000078  00000-0  27374-4 0  9991
2 43012  98.7319 130.8805 0128184 144.9279 216.0443 14.56163231183479
RADFXSAT (FOX-1B)       
1 43017U 17073E   21118.21952914  .00001134  00000-0  91538-4 0  9998
2 43017  97.7103  24.1936 0256687 104.1793 258.8080 14.79456066185696
EAGLESAT 1              
1 43018U 17073F   21118.22140565  .00001942  00000-0  15067-3 0  9990
2 43018  97.7109  25.0016 0253501 101.0812 261.9018 14.80453927185615
ECAMSAT                 
1 43019U 98067NG  21118.59586824  .00028527  00000-0  17660-3 0  9994
2 43019  51.6352 122.1845 0002547 107.1554 252.9725 15.76831338282318
INS-1C                  
1 43116U 18004F   21118.45466512  .00002707  00000-0  11135-3 0  9994
2 43116  97.4156 193.4040 0009600  28.3891 331.7868 15.24984521183027
FLOCK 3P'-3             
1 43119U 18004J   21118.45511535  .00001762  00000-0  75281-4 0  9996
2 43119  97.4147 192.3742 0010677  35.5348 324.6599 15.24143617182967
FLOCK 3P'-2             
1 43120U 18004K   21118.15771393  .00001554  00000-0  67347-4 0  9998
2 43120  97.4155 191.8979 0010753  37.1017 323.0961 15.23836860182908
FLOCK 3P'-1             
1 43121U 18004L   21118.48395358  .00005720  00000-0  21997-3 0  9997
2 43121  97.4148 193.8619 0009626  30.5501 329.6297 15.26760705182996
FLOCK 3P'-4             
1 43122U 18004M   21118.48242789  .00001496  00000-0  64887-4 0  9999
2 43122  97.4164 192.3167 0010587  37.9538 322.2443 15.23863114182959
MICROMAS-2A             
1 43131U 18004W   21118.85121082  .00003781  00000-0  14495-3 0  9990
2 43131  97.4128 195.0949 0008963  29.4235 330.7507 15.27090614183195
PICSAT                  
1 43132U 18004X   21118.87139303  .00002489  00000-0  10051-3 0  9996
2 43132  97.4106 193.8608 0009810  33.1050 327.0801 15.25677088183122
CNUSAIL-1               
1 43133U 18004Y   21118.47345904  .00002153  00000-0  89821-4 0  9999
2 43133  97.4084 192.5697 0010084  36.2620 323.9299 15.24717652183019
2018-004Z               
1 43134U 18004Z   21118.44992893  .00002677  00000-0  10910-3 0  9995
2 43134  97.4100 193.1647 0009782  35.8209 324.3683 15.25301605183045
FOX-1D (AO-92)          
1 43137U 18004AC  21118.86447445  .00002166  00000-0  89355-4 0  9995
2 43137  97.4085 193.4016 0009635  35.9188 324.2695 15.25104138183108
STEP CUBE LAB           
1 43138U 18004AD  21118.50286420  .00003550  00000-0  13786-3 0  9993
2 43138  97.4128 194.6262 0009136  34.7842 325.3993 15.26705533183136
XIAOXIANG-2             
1 43155U 18008A   21118.84241545  .00001976  00000-0  11726-3 0  9994
2 43155  97.4058 185.2949 0018411 135.9211 335.7057 15.12331137180576
